COSMOS 1812             
1 17295U 87003A   26062.61804691  .02074640 -12187-5  77782-3 0  9995
2 17295  82.4711 202.5548 0007895 287.2968  72.7458 16.24359428143506
IRIDIUM 51              
1 25262U 98018A   26062.50404059  .00638687  17884-3  13063-2 0  9990
2 25262  86.3535 283.8895 0017978 309.1194  50.8493 15.99113297487365
CZ-2D DEB               
1 31409U 05024J   26060.90543068  .00239460  23346-4  72484-3 0  9991
2 31409  97.1482 103.0739 0004089 145.2826 214.8716 15.92111318117181
ZIYUAN 3-01 (ZY 3-01)   
1 38046U 12001A   26062.74713627  .00466524  92701-4  10557-2 0  9998
2 38046  97.1548 137.2939 0001845 247.4015 112.7067 15.97586704787752
HUMSAT-D                
1 39433U 13066T   26062.50188392  .00975840  46479-3  19789-2 0  9992
2 39433  97.4831  75.0465 0007102 164.2262 195.9238 15.99597310670476
H-2A DEB                
1 43675U 18084E   26062.48961690  .01167610  68927-3  25077-2 0  9995
2 43675  98.0069 278.3082 0003268 299.3596  60.7353 15.98665741402137
SPACEBEE-7              
1 43816U 18099BL  26062.19267674  .01223781  84948-3  19162-2 0  9998
2 43816  97.4402 148.5792 0008197 271.8568  88.1774 16.04143881398177
STARLINK-1112           
1 44925U 20001M   26062.57759378  .00621977  20023-3  83878-3 0  9993
2 44925  53.0340 272.7953 0004020 266.2978  93.7594 16.05879900340348
STARLINK-1210           
1 45207U 20012AF  26062.78339796  .06351918  12300-4  68555-3 0  9996
2 45207  52.9976 288.6877 0006102 292.3798  67.6600 16.36592232335974
STARLINK-1294           
1 45551U 20025W   26062.09590104  .12534528  12493-4  33071-3 0  9993
2 45551  53.0150   7.4359 0003065 236.3782 123.6975 16.45728679325906
STARLINK-1484           
1 45756U 20038AC  26062.58336806  .00410376  80540-4  90423-3 0  9998
2 45756  52.9984  88.1667 0007155  35.0923 300.7461 15.97491588  6062
STARLINK-1601           
1 46120U 20057D   26062.59674447  .03993572  12003-4  10948-2 0  9991
2 46120  53.0290 285.6815 0007153 261.4690  98.5540 16.27230128307242
STARLINK-1710           
1 46330U 20062F   26062.25927530  .09296969  12294-4  76683-3 0  9990
2 46330  53.0162 309.3837 0006597 249.0657 110.9683 16.38910115304693
STARLINK-1723           
1 46333U 20062J   26062.64646586  .02021133  45737-2  13748-2 0  9995
2 46333  53.0368 353.1909 0006313 201.0538 159.0240 16.17129904304107
STARLINK-1738           
1 46336U 20062M   26062.58336806  .00693161  22804-3  13412-2 0  9995
2 46336  53.0283 311.9608 0005305 139.9964 289.2003 15.99799070  6036
STARLINK-1750           
1 46337U 20062N   26062.22223916  .14097257  12481-4  30997-3 0  9992
2 46337  53.0217 322.9728 0006444 239.7336 120.3075 16.46245969304497
