[{"OBJECT_NAME":"COSMOS 1812","OBJECT_ID":"1987-003A","EPOCH":"2026-03-03T14:49:59.253024","MEAN_MOTION":16.24359428,"ECCENTRICITY":0.0007895,"INCLINATION":82.4711,"RA_OF_ASC_NODE":202.5548,"ARG_OF_PERICENTER":287.2968,"MEAN_ANOMALY":72.7458,"EPHEMERIS_TYPE":0,"CLASSIFICATION_TYPE":"U","NORAD_CAT_ID":17295,"ELEMENT_SET_NO":999,"REV_AT_EPOCH":14350,"BSTAR":0.00077782,"MEAN_MOTION_DOT":0.0207464,"MEAN_MOTION_DDOT":-1.2187e-6},{"OBJECT_NAME":"IRIDIUM 51","OBJECT_ID":"1998-018A","EPOCH":"2026-03-03T12:05:49.106976","MEAN_MOTION":15.99113297,"ECCENTRICITY":0.0017978,"INCLINATION":86.3535,"RA_OF_ASC_NODE":283.8895,"ARG_OF_PERICENTER":309.1194,"MEAN_ANOMALY":50.8493,"EPHEMERIS_TYPE":0,"CLASSIFICATION_TYPE":"U","NORAD_CAT_ID":25262,"ELEMENT_SET_NO":999,"REV_AT_EPOCH":48736,"BSTAR":0.0013063,"MEAN_MOTION_DOT":0.00638687,"MEAN_MOTION_DDOT":0.00017884},{"OBJECT_NAME":"CZ-2D DEB","OBJECT_ID":"2005-024J","EPOCH":"2026-03-01T21:43:49.210752","MEAN_MOTION":15.92111318,"ECCENTRICITY":0.0004089,"INCLINATION":97.1482,"RA_OF_ASC_NODE":103.0739,"ARG_OF_PERICENTER":145.2826,"MEAN_ANOMALY":214.8716,"EPHEMERIS_TYPE":0,"CLASSIFICATION_TYPE":"U","NORAD_CAT_ID":31409,"ELEMENT_SET_NO":999,"REV_AT_EPOCH":11718,"BSTAR":0.00072484,"MEAN_MOTION_DOT":0.0023946,"MEAN_MOTION_DDOT":2.3346e-5},{"OBJECT_NAME":"ZIYUAN 3-01 (ZY 3-01)","OBJECT_ID":"2012-001A","EPOCH":"2026-03-03T17:55:52.573728","MEAN_MOTION":15.97586704,"ECCENTRICITY":0.0001845,"INCLINATION":97.1548,"RA_OF_ASC_NODE":137.2939,"ARG_OF_PERICENTER":247.4015,"MEAN_ANOMALY":112.7067,"EPHEMERIS_TYPE":0,"CLASSIFICATION_TYPE":"U","NORAD_CAT_ID":38046,"ELEMENT_SET_NO":999,"REV_AT_EPOCH":78775,"BSTAR":0.0010557,"MEAN_MOTION_DOT":0.00466524,"MEAN_MOTION_DDOT":9.2701e-5},{"OBJECT_NAME":"HUMSAT-D","OBJECT_ID":"2013-066T","EPOCH":"2026-03-03T12:02:42.770688","MEAN_MOTION":15.9959731,"ECCENTRICITY":0.0007102,"INCLINATION":97.4831,"RA_OF_ASC_NODE":75.0465,"ARG_OF_PERICENTER":164.2262,"MEAN_ANOMALY":195.9238,"EPHEMERIS_TYPE":0,"CLASSIFICATION_TYPE":"U","NORAD_CAT_ID":39433,"ELEMENT_SET_NO":999,"REV_AT_EPOCH":67047,"BSTAR":0.0019789,"MEAN_MOTION_DOT":0.0097584,"MEAN_MOTION_DDOT":0.00046479},{"OBJECT_NAME":"H-2A DEB","OBJECT_ID":"2018-084E","EPOCH":"2026-03-03T11:45:02.900160","MEAN_MOTION":15.98665741,"ECCENTRICITY":0.0003268,"INCLINATION":98.0069,"RA_OF_ASC_NODE":278.3082,"ARG_OF_PERICENTER":299.3596,"MEAN_ANOMALY":60.7353,"EPHEMERIS_TYPE":0,"CLASSIFICATION_TYPE":"U","NORAD_CAT_ID":43675,"ELEMENT_SET_NO":999,"REV_AT_EPOCH":40213,"BSTAR":0.0025077,"MEAN_MOTION_DOT":0.0116761,"MEAN_MOTION_DDOT":0.00068927},{"OBJECT_NAME":"SPACEBEE-7","OBJECT_ID":"2018-099BL","EPOCH":"2026-03-03T04:37:27.270336","MEAN_MOTION":16.04143881,"ECCENTRICITY":0.0008197,"INCLINATION":97.4402,"RA_OF_ASC_NODE":148.5792,"ARG_OF_PERICENTER":271.8568,"MEAN_ANOMALY":88.1774,"EPHEMERIS_TYPE":0,"CLASSIFICATION_TYPE":"U","NORAD_CAT_ID":43816,"ELEMENT_SET_NO":999,"REV_AT_EPOCH":39817,"BSTAR":0.0019162,"MEAN_MOTION_DOT":0.01223781,"MEAN_MOTION_DDOT":0.00084948},{"OBJECT_NAME":"STARLINK-1112","OBJECT_ID":"2020-001M","EPOCH":"2026-03-03T13:51:44.102592","MEAN_MOTION":16.058799,"ECCENTRICITY":0.000402,"INCLINATION":53.034,"RA_OF_ASC_NODE":272.7953,"ARG_OF_PERICENTER":266.2978,"MEAN_ANOMALY":93.7594,"EPHEMERIS_TYPE":0,"CLASSIFICATION_TYPE":"U","NORAD_CAT_ID":44925,"ELEMENT_SET_NO":999,"REV_AT_EPOCH":34034,"BSTAR":0.00083878,"MEAN_MOTION_DOT":0.00621977,"MEAN_MOTION_DDOT":0.00020023},{"OBJECT_NAME":"STARLINK-1210","OBJECT_ID":"2020-012AF","EPOCH":"2026-03-03T18:48:05.583744","MEAN_MOTION":16.36592232,"ECCENTRICITY":0.0006102,"INCLINATION":52.9976,"RA_OF_ASC_NODE":288.6877,"ARG_OF_PERICENTER":292.3798,"MEAN_ANOMALY":67.66,"EPHEMERIS_TYPE":0,"CLASSIFICATION_TYPE":"U","NORAD_CAT_ID":45207,"ELEMENT_SET_NO":999,"REV_AT_EPOCH":33597,"BSTAR":0.00068555,"MEAN_MOTION_DOT":0.06351918,"MEAN_MOTION_DDOT":1.23e-5},{"OBJECT_NAME":"STARLINK-1294","OBJECT_ID":"2020-025W","EPOCH":"2026-03-03T02:18:05.849856","MEAN_MOTION":16.45728679,"ECCENTRICITY":0.0003065,"INCLINATION":53.015,"RA_OF_ASC_NODE":7.4359,"ARG_OF_PERICENTER":236.3782,"MEAN_ANOMALY":123.6975,"EPHEMERIS_TYPE":0,"CLASSIFICATION_TYPE":"U","NORAD_CAT_ID":45551,"ELEMENT_SET_NO":999,"REV_AT_EPOCH":32590,"BSTAR":0.00033071,"MEAN_MOTION_DOT":0.12534528,"MEAN_MOTION_DDOT":1.2493e-5},{"OBJECT_NAME":"STARLINK-1484","OBJECT_ID":"2020-038AC","EPOCH":"2026-03-03T14:00:03.000384","MEAN_MOTION":15.97491588,"ECCENTRICITY":0.0007155,"INCLINATION":52.9984,"RA_OF_ASC_NODE":88.1667,"ARG_OF_PERICENTER":35.0923,"MEAN_ANOMALY":300.7461,"EPHEMERIS_TYPE":0,"CLASSIFICATION_TYPE":"U","NORAD_CAT_ID":45756,"ELEMENT_SET_NO":999,"REV_AT_EPOCH":606,"BSTAR":0.00090423,"MEAN_MOTION_DOT":0.00410376,"MEAN_MOTION_DDOT":8.054e-5},{"OBJECT_NAME":"STARLINK-1601","OBJECT_ID":"2020-057D","EPOCH":"2026-03-03T14:19:18.722208","MEAN_MOTION":16.27230128,"ECCENTRICITY":0.0007153,"INCLINATION":53.029,"RA_OF_ASC_NODE":285.6815,"ARG_OF_PERICENTER":261.469,"MEAN_ANOMALY":98.554,"EPHEMERIS_TYPE":0,"CLASSIFICATION_TYPE":"U","NORAD_CAT_ID":46120,"ELEMENT_SET_NO":999,"REV_AT_EPOCH":30724,"BSTAR":0.0010948,"MEAN_MOTION_DOT":0.03993572,"MEAN_MOTION_DDOT":1.2003e-5},{"OBJECT_NAME":"STARLINK-1710","OBJECT_ID":"2020-062F","EPOCH":"2026-03-03T06:13:21.385920","MEAN_MOTION":16.38910115,"ECCENTRICITY":0.0006597,"INCLINATION":53.0162,"RA_OF_ASC_NODE":309.3837,"ARG_OF_PERICENTER":249.0657,"MEAN_ANOMALY":110.9683,"EPHEMERIS_TYPE":0,"CLASSIFICATION_TYPE":"U","NORAD_CAT_ID":46330,"ELEMENT_SET_NO":999,"REV_AT_EPOCH":30469,"BSTAR":0.00076683,"MEAN_MOTION_DOT":0.09296969,"MEAN_MOTION_DDOT":1.2294e-5},{"OBJECT_NAME":"STARLINK-1723","OBJECT_ID":"2020-062J","EPOCH":"2026-03-03T15:30:54.650304","MEAN_MOTION":16.17129904,"ECCENTRICITY":0.0006313,"INCLINATION":53.0368,"RA_OF_ASC_NODE":353.1909,"ARG_OF_PERICENTER":201.0538,"MEAN_ANOMALY":159.024,"EPHEMERIS_TYPE":0,"CLASSIFICATION_TYPE":"U","NORAD_CAT_ID":46333,"ELEMENT_SET_NO":999,"REV_AT_EPOCH":30410,"BSTAR":0.0013748,"MEAN_MOTION_DOT":0.02021133,"MEAN_MOTION_DDOT":0.0045737},{"OBJECT_NAME":"STARLINK-1738","OBJECT_ID":"2020-062M","EPOCH":"2026-03-03T14:00:03.000384","MEAN_MOTION":15.9979907,"ECCENTRICITY":0.0005305,"INCLINATION":53.0283,"RA_OF_ASC_NODE":311.9608,"ARG_OF_PERICENTER":139.9964,"MEAN_ANOMALY":289.2003,"EPHEMERIS_TYPE":0,"CLASSIFICATION_TYPE":"U","NORAD_CAT_ID":46336,"ELEMENT_SET_NO":999,"REV_AT_EPOCH":603,"BSTAR":0.0013412,"MEAN_MOTION_DOT":0.00693161,"MEAN_MOTION_DDOT":0.00022804},{"OBJECT_NAME":"STARLINK-1750","OBJECT_ID":"2020-062N","EPOCH":"2026-03-03T05:20:01.463424","MEAN_MOTION":16.46245969,"ECCENTRICITY":0.0006444,"INCLINATION":53.0217,"RA_OF_ASC_NODE":322.9728,"ARG_OF_PERICENTER":239.7336,"MEAN_ANOMALY":120.3075,"EPHEMERIS_TYPE":0,"CLASSIFICATION_TYPE":"U","NORAD_CAT_ID":46337,"ELEMENT_SET_NO":999,"REV_AT_EPOCH":30449,"BSTAR":0.00030997,"MEAN_MOTION_DOT":0.14097257,"MEAN_MOTION_DDOT":1.2481e-5}]
